OBJECT C                
1 57582U 23117C   25151.14971805  .00008462  00000+0  33298-3 0  9997
2 57582  97.4446 226.1277 0009989 148.7941 211.3892 15.25845301100077
